#aV2016  2 26  0  0  0.00000000     288 DD+AD WGS84 FIT  NGA
## 1885 432000.00000000   300.00000000 57444 0.0000000000000
+   30     1  2  3  5  6  7  8  9 10 11 12 13 14 15 16 17 18
+         19 20 21 22 23 24 25 26 27 28 29 30 31  0  0  0  0
+          0  0  0  0  0  0  0  0  0  0  0  0  0  0  0  0  0
+          0  0  0  0  0  0  0  0  0  0  0  0  0  0  0  0  0
+          0  0  0  0  0  0  0  0  0  0  0  0  0  0  0  0  0
++         2  2  2  2  2  2  2  2  2  2  2  2  2  2  2  2  2
++         2  2  2  2  2  2  2  2  2  2  2  2  2  0  0  0  0
++         0  0  0  0  0  0  0  0  0  0  0  0  0  0  0  0  0
++         0  0  0  0  0  0  0  0  0  0  0  0  0  0  0  0  0
++         0  0  0  0  0  0  0  0  0  0  0  0  0  0  0  0  0
%c cc cc ccc ccc cccc cccc cccc cccc ccccc ccccc ccccc ccccc
%c cc cc ccc ccc cccc cccc cccc cccc ccccc ccccc ccccc ccccc
%f  0.0000000  0.000000000  0.00000000000  0.000000000000000
%f  0.0000000  0.000000000  0.00000000000  0.000000000000000
%i    0    0    0    0      0      0      0      0         0
%i    0    0    0    0      0      0      0      0         0
/*      NGA, ST. LOUIS,MO.                                  
/*   EPHEMERIS COMPUTED FROM 2 DAYS OF DATA                 
/*   EPOCHA v2.4 SMOOTHER                                   
/*   G1762 IERS2010 SATAF SATAPC                            
*  2016  2 26 20 15  0.00000000
P  1 -20960.928356 -14057.775730  -8698.464265     12.812697                    
V  1  11009.659121   1551.659351 -29068.501585      0.010436                    
P  2    296.672064  16380.029860  21385.874795    599.463322                    
V  2 -25095.174686  -7489.631430   5794.926970     -0.001312                    
P  3 -13055.973003 -18765.571042  13513.922106    -29.442919                    
V  3   -876.011020 -17290.136686 -24867.966233     -0.045893                    
P  5   1847.341369  26016.683358   4359.575683   -142.551615                    
V  5  -4390.001435  -4916.963838  30912.183160      0.033869                    
P  6 -15033.190554   9286.849102  19837.556541    151.707601                    
V  6 -23334.463255  -9478.377146 -13256.845922      0.059364                    
P  7 -25459.988757  -5057.580300  -6402.203310    467.866506                    
V  7  -6870.469861  -4998.844894  30261.304933     -0.017296                    
P  8  -3853.461318 -15885.351393 -20872.453527    -25.386538                    
V  8  20707.356704 -16774.854452   8938.676325     -0.014406                    
P  9 -21072.534584   3418.206950  15788.602448     78.686156                    
V  9  13882.915209 -14674.332099  21666.754439      0.076251                    
P 10  12070.384050 -12313.199434 -20177.243551     37.781314                    
V 10   5791.699102  25023.647537 -11853.596898     -0.060917                    
P 11 -17506.701655 -12542.467735 -16129.082876   -634.161390                    
V 11  19642.387207  -3338.209476 -19339.286578     -0.017798                    
P 12   9951.045711  22283.208180  10636.179640    370.080826                    
V 12    270.572866  13646.702600 -28314.627924      0.016202                    
P 13  -5549.207594  18705.284368 -18199.547548   -188.043368                    
V 13 -19625.641128  11619.766225  17975.296217     -0.028879                    
P 14  21789.858882 -14994.217606   -975.991323      0.747719                    
V 14    425.231583   3213.153961 -31895.944217     -0.022334                    
P 15   9313.594682  13020.190123 -21298.398610   -299.080965                    
V 15 -19795.046921  18216.165578   2840.261985     -0.018019                    
P 16    302.178175 -25880.087865   4857.405447    -36.614520                    
V 16   2832.292075   6053.497378  31878.512009      0.030547                    
P 17 -21765.344249  14777.329930  -2448.071612   -201.263940                    
V 17   1227.192629  -4167.309709 -31997.797715     -0.005343                    
P 18  16099.755676   1102.116453 -20603.330234    487.685919                    
V 18   5171.754465  26994.632859   5084.000715      0.040098                    
P 19 -17688.488446  18563.536933   7431.497115   -524.984530                    
V 19  -9065.742835   3844.073302 -29876.034139     -0.002412                    
P 20  13383.893556  20654.603929 -10072.303670    395.524392                    
V 20    -32.601647  13109.815926  27317.843960      0.025995                    
P 21  24965.269538   1563.239841  -8587.736868   -512.324789                    
V 21  10272.483447   6805.404164  28367.296871     -0.017747                    
P 22   -993.223638 -25771.919299  -5815.005731    390.824305                    
V 22   5527.198041   6739.091532 -29796.381821     -0.061951                    
P 23 -14965.192974  -7141.732208  20999.455748   -161.976203                    
V 23  19596.611698 -17453.310788   7663.130348     -0.018481                    
P 24  18956.851173  14898.811655 -11405.832643    -13.048545                    
V 24 -14418.575963  -2141.821458 -26691.371417     -0.006800                    
P 25  14905.552724  11370.781434  18781.809886   -124.065852                    
V 25   3214.407255  23770.417591 -16659.253526     -0.068029                    
P 26   6003.932334 -21605.467287  14203.346217   -270.525663                    
V 26   5490.798487  17329.568205  24083.768936     -0.152829                    
P 27   6590.697527 -20093.087860 -15995.418913     66.588633                    
V 27  16601.327394 -11845.905595  21898.565918      0.036468                    
P 28 -12227.607604  10880.404196 -20276.123473    505.200265                    
V 28  -3726.666172 -26884.988447 -11864.228949      0.026720                    
P 29  19624.808866    285.038923  17890.799386    654.956015                    
V 29 -17206.594889  14811.881776  18697.799439      0.006167                    
P 30 -21446.471147   2640.999476 -15505.901577    100.787052                    
V 30 -17179.485694  -9790.739722  22022.134403      0.041476                    
P 31  13393.186960  -9994.712090  20837.832792    280.896761                    
V 31  24042.114639  10140.425658 -10288.337875     -0.016753                    
EOF
